[{"OBJECT_NAME":"EXO-0","OBJECT_ID":"2023-174DK","EPOCH":"2026-03-09T17:03:04.419648","MEAN_MOTION":15.32821991,"ECCENTRICITY":0.00098779,"INCLINATION":97.3864,"RA_OF_ASC_NODE":148.9039,"ARG_OF_PERICENTER":157.1125,"MEAN_ANOMALY":203.0559,"EPHEMERIS_TYPE":0,"CLASSIFICATION_TYPE":"U","NORAD_CAT_ID":59175,"ELEMENT_SET_NO":999,"REV_AT_EPOCH":12979,"BSTAR":0.00036716083,"MEAN_MOTION_DOT":0.00011582,"MEAN_MOTION_DDOT":0},{"OBJECT_NAME":"STARLINK-33636","OBJECT_ID":"2025-063S","EPOCH":"2026-03-09T23:00:38.795904","MEAN_MOTION":15.30223783,"ECCENTRICITY":0.00015204,"INCLINATION":53.1599,"RA_OF_ASC_NODE":50.9979,"ARG_OF_PERICENTER":102.6105,"MEAN_ANOMALY":257.5066,"EPHEMERIS_TYPE":0,"CLASSIFICATION_TYPE":"U","NORAD_CAT_ID":63379,"ELEMENT_SET_NO":999,"REV_AT_EPOCH":5475,"BSTAR":0.0014159629,"MEAN_MOTION_DOT":0.00041845,"MEAN_MOTION_DDOT":0}]
